{
    "links": {
        "self": "http://www.neowsapp.com/rest/v1/neo/3837820?api_key=iIulBulltgU6a56xZRHN4H3l9WmuAYTsLGpBGhQ2"
    },
    "id": "3837820",
    "neo_reference_id": "3837820",
    "name": "(2019 AK10)",
    "designation": "2019 AK10",
    "nasa_jpl_url": "http://ssd.jpl.nasa.gov/sbdb.cgi?sstr=3837820",
    "absolute_magnitude_h": 20.8,
    "estimated_diameter": {
        "kilometers": {
            "estimated_diameter_min": 0.1838886721,
            "estimated_diameter_max": 0.411187571
        },
        "meters": {
            "estimated_diameter_min": 183.8886720703,
            "estimated_diameter_max": 411.1875710413
        },
        "miles": {
            "estimated_diameter_min": 0.1142630881,
            "estimated_diameter_max": 0.2555000322
        },
        "feet": {
            "estimated_diameter_min": 603.309310875,
            "estimated_diameter_max": 1349.040630575
        }
    },
    "is_potentially_hazardous_asteroid": false,
    "close_approach_data": [
        {
            "close_approach_date": "2007-01-09",
            "close_approach_date_full": "2007-Jan-09 05:44",
            "epoch_date_close_approach": 1168321440000,
            "relative_velocity": {
                "kilometers_per_second": "25.8116847448",
                "kilometers_per_hour": "92922.0650811947",
                "miles_per_hour": "57738.1576055901"
            },
            "miss_distance": {
                "astronomical": "0.3104641569",
                "lunar": "120.7705570341",
                "kilometers": "46444776.583585803",
                "miles": "28859445.9387499614"
            },
            "orbiting_body": "Earth"
        },
        {
            "close_approach_date": "2013-01-08",
            "close_approach_date_full": "2013-Jan-08 17:22",
            "epoch_date_close_approach": 1357665720000,
            "relative_velocity": {
                "kilometers_per_second": "25.7520775968",
                "kilometers_per_hour": "92707.4793485174",
                "miles_per_hour": "57604.8223763052"
            },
            "miss_distance": {
                "astronomical": "0.3098329122",
                "lunar": "120.5250028458",
                "kilometers": "46350343.721017014",
                "miles": "28800768.0788782332"
            },
            "orbiting_body": "Earth"
        },
        {
            "close_approach_date": "2019-01-09",
            "close_approach_date_full": "2019-Jan-09 04:08",
            "epoch_date_close_approach": 1547006880000,
            "relative_velocity": {
                "kilometers_per_second": "25.6533174819",
                "kilometers_per_hour": "92351.9429347417",
                "miles_per_hour": "57383.905875201"
            },
            "miss_distance": {
                "astronomical": "0.308944516",
                "lunar": "120.179416724",
                "kilometers": "46217441.54178092",
                "miles": "28718186.494059896"
            },
            "orbiting_body": "Earth"
        },
        {
            "close_approach_date": "2025-01-08",
            "close_approach_date_full": "2025-Jan-08 14:45",
            "epoch_date_close_approach": 1736347500000,
            "relative_velocity": {
                "kilometers_per_second": "25.5134713926",
                "kilometers_per_hour": "91848.4970134068",
                "miles_per_hour": "57071.084158136"
            },
            "miss_distance": {
                "astronomical": "0.3083475656",
                "lunar": "119.9472030184",
                "kilometers": "46128139.033445272",
                "miles": "28662696.4884858736"
            },
            "orbiting_body": "Earth"
        },
        {
            "close_approach_date": "2031-01-09",
            "close_approach_date_full": "2031-Jan-09 01:37",
            "epoch_date_close_approach": 1925689020000,
            "relative_velocity": {
                "kilometers_per_second": "25.3809608682",
                "kilometers_per_hour": "91371.4591256928",
                "miles_per_hour": "56774.671366184"
            },
            "miss_distance": {
                "astronomical": "0.3077808211",
                "lunar": "119.7267394079",
                "kilometers": "46043355.263411057",
                "miles": "28610014.2966923066"
            },
            "orbiting_body": "Earth"
        }
    ],
    "orbital_data": {
        "orbit_id": "5",
        "orbit_determination_date": "2019-07-27 14:01:41",
        "first_observation_date": "2019-01-11",
        "last_observation_date": "2019-01-24",
        "data_arc_in_days": 13,
        "observations_used": 32,
        "orbit_uncertainty": "8",
        "minimum_orbit_intersection": ".307985",
        "jupiter_tisserand_invariant": "5.169",
        "epoch_osculation": "2458496.5",
        "eccentricity": ".5760208122872765",
        "semi_major_axis": "1.129091304510598",
        "inclination": "42.56859234976049",
        "ascending_node_longitude": "302.9038566826914",
        "orbital_period": "438.2198249475588",
        "perihelion_distance": ".4787112141399026",
        "perihelion_argument": "32.33514194705413",
        "aphelion_distance": "1.779471394881293",
        "perihelion_time": "2458420.621603071198",
        "mean_anomaly": "62.33452103094063",
        "mean_motion": ".8215055082071669",
        "equinox": "J2000",
        "orbit_class": {
            "orbit_class_type": "APO",
            "orbit_class_description": "Near-Earth asteroid orbits which cross the Earth’s orbit similar to that of 1862 Apollo",
            "orbit_class_range": "a (semi-major axis) > 1.0 AU; q (perihelion) < 1.017 AU"
        }
    },
    "is_sentry_object": false
}